STARLINK-31268
1 59245U 24049Q   26061.16668981  .01006471  00000+0  68103-2 0  9992
2 59245  42.9856 168.4287 0025468  12.8942  90.0983 15.71432044  5902
